YAOGAN-30 11A           
1 49026U 21065A   26068.71073618  .00004757  00000+0  35664-3 0  9999
2 49026  34.9929 159.1721 0004674 355.4238   4.6427 15.02110690253677
STARLINK-5364           
1 55491U 23015AU  26068.40534917 -.00000748  00000+0 -40320-4 0  9993
2 55491  43.0078 314.3098 0001002 282.5462  77.5269 15.02533328170868
