[{"OBJECT_NAME":"YAOGAN-30 11A","OBJECT_ID":"2021-065A","EPOCH":"2026-03-09T17:03:27.605952","MEAN_MOTION":15.0211069,"ECCENTRICITY":0.00046738,"INCLINATION":34.9929,"RA_OF_ASC_NODE":159.1721,"ARG_OF_PERICENTER":355.4238,"MEAN_ANOMALY":4.6427,"EPHEMERIS_TYPE":0,"CLASSIFICATION_TYPE":"U","NORAD_CAT_ID":49026,"ELEMENT_SET_NO":999,"REV_AT_EPOCH":25367,"BSTAR":0.00035664483,"MEAN_MOTION_DOT":4.757e-5,"MEAN_MOTION_DDOT":0},{"OBJECT_NAME":"STARLINK-5364","OBJECT_ID":"2023-015AU","EPOCH":"2026-03-09T09:43:42.168288","MEAN_MOTION":15.02533328,"ECCENTRICITY":0.00010022,"INCLINATION":43.0078,"RA_OF_ASC_NODE":314.3098,"ARG_OF_PERICENTER":282.5462,"MEAN_ANOMALY":77.5269,"EPHEMERIS_TYPE":0,"CLASSIFICATION_TYPE":"U","NORAD_CAT_ID":55491,"ELEMENT_SET_NO":999,"REV_AT_EPOCH":17086,"BSTAR":-4.0320208e-5,"MEAN_MOTION_DOT":-7.48e-6,"MEAN_MOTION_DDOT":0}]
